{"type": "FeatureCollection", "features": [ {"type": "Feature", "properties": {"norad_id": 65077, "name": "CREW DRAGON 11", "group": "stations", "lat": -21.208787598399734, "lon": 31.314019076759678, "alt_km": 419.5509800502896, "timestamp": "2025-12-02T10:50:46.070844+00:00", "meta": {"OBJECT_NAME": "CREW DRAGON 11", "OBJECT_ID": "2025-166A", "EPOCH": "2025-12-01T13:49:44.445504", "MEAN_MOTION": 15.49226524, "ECCENTRICITY": 0.00036473, "INCLINATION": 51.6309, "RA_OF_ASC_NODE": 197.7449, "ARG_OF_PERICENTER": 190.9481, "MEAN_ANOMALY": 169.1428, "EPHEMERIS_TYPE": 0, "CLASSIFICATION_TYPE": "U", "NORAD_CAT_ID": 65077, "ELEMENT_SET_NO": 999, "REV_AT_EPOCH": 214, "BSTAR": 0.00016365535, "MEAN_MOTION_DOT": 8.648e-05, "MEAN_MOTION_DDOT": 0}, "tle": {"line1": "1 65077U 25166A   25335.57620886  .00008648  00000+0  16366-3 0  9995", "line2": "2 65077  51.6309 197.7449 0003647 190.9481 169.1428 15.49226524  2142"}}, "geometry": {"type": "Point", "coordinates": [31.314019076759678, -21.208787598399734]}}, {"type": "Feature", "properties": {"norad_id": 65304, "name": "DRAGON CRS-33", "group": "stations", "lat": -21.208788080175296, "lon": 31.314019537718657, "alt_km": 419.550980096943, "timestamp": "2025-12-02T10:50:46.070854+00:00", "meta": {"OBJECT_NAME": "DRAGON CRS-33", "OBJECT_ID": "2025-186A", "EPOCH": "2025-12-01T13:49:44.445504", "MEAN_MOTION": 15.49226524, "ECCENTRICITY": 0.00036473, "INCLINATION": 51.6309, "RA_OF_ASC_NODE": 197.7449, "ARG_OF_PERICENTER": 190.9481, "MEAN_ANOMALY": 169.1428, "EPHEMERIS_TYPE": 0, "CLASSIFICATION_TYPE": "U", "NORAD_CAT_ID": 65304, "ELEMENT_SET_NO": 999, "REV_AT_EPOCH": 11, "BSTAR": 0.00016365535, "MEAN_MOTION_DOT": 8.648e-05, "MEAN_MOTION_DDOT": 0}, "tle": {"line1": "1 65304U 25186A   25335.57620886  .00008648  00000+0  16366-3 0  9990", "line2": "2 65304  51.6309 197.7449 0003647 190.9481 169.1428 15.49226524   110"}}, "geometry": {"type": "Point", "coordinates": [31.314019537718657, -21.208788080175296]}}, {"type": "Feature", "properties": {"norad_id": 65586, "name": "PROGRESS-MS 32", "group": "stations", "lat": -21.208788899195252, "lon": 31.31402032135033, "alt_km": 419.5509801762555, "timestamp": "2025-12-02T10:50:46.070871+00:00", "meta": {"OBJECT_NAME": "PROGRESS-MS 32", "OBJECT_ID": "2025-204A", "EPOCH": "2025-12-01T13:49:44.445504", "MEAN_MOTION": 15.49226524, "ECCENTRICITY": 0.00036473, "INCLINATION": 51.6309, "RA_OF_ASC_NODE": 197.7449, "ARG_OF_PERICENTER": 190.9481, "MEAN_ANOMALY": 169.1428, "EPHEMERIS_TYPE": 0, "CLASSIFICATION_TYPE": "U", "NORAD_CAT_ID": 65586, "ELEMENT_SET_NO": 999, "REV_AT_EPOCH": 27, "BSTAR": 0.00016365535, "MEAN_MOTION_DOT": 8.648e-05, "MEAN_MOTION_DDOT": 0}, "tle": {"line1": "1 65586U 25204A   25335.57620886  .00008648  00000+0  16366-3 0  9993", "line2": "2 65586  51.6309 197.7449 0003647 190.9481 169.1428 15.49226524   279"}}, "geometry": {"type": "Point", "coordinates": [31.31402032135033, -21.208788899195252]}}, {"type": "Feature", "properties": {"norad_id": 65616, "name": "CYGNUS NG-23", "group": "stations", "lat": -21.208789380971993, "lon": 31.314020782310447, "alt_km": 419.55098022291077, "timestamp": "2025-12-02T10:50:46.070881+00:00", "meta": {"OBJECT_NAME": "CYGNUS NG-23", "OBJECT_ID": "2025-208A", "EPOCH": "2025-12-01T13:49:44.445504", "MEAN_MOTION": 15.49226524, "ECCENTRICITY": 0.00036473, "INCLINATION": 51.6309, "RA_OF_ASC_NODE": 197.7449, "ARG_OF_PERICENTER": 190.9481, "MEAN_ANOMALY": 169.1428, "EPHEMERIS_TYPE": 0, "CLASSIFICATION_TYPE": "U", "NORAD_CAT_ID": 65616, "ELEMENT_SET_NO": 999, "REV_AT_EPOCH": 22, "BSTAR": 0.00016365535, "MEAN_MOTION_DOT": 8.648e-05, "MEAN_MOTION_DDOT": 0}, "tle": {"line1": "1 65616U 25208A   25335.57620886  .00008648  00000+0  16366-3 0  9991", "line2": "2 65616  51.6309 197.7449 0003647 190.9481 169.1428 15.49226524   228"}}, "geometry": {"type": "Point", "coordinates": [31.314020782310447, -21.208789380971993]}}, {"type": "Feature", "properties": {"norad_id": 65729, "name": "DRAGONFLY", "group": "stations", "lat": 25.505373818090014, "lon": -13.930404646941446, "alt_km": 360.0010004494534, "timestamp": "2025-12-02T10:50:46.070891+00:00", "meta": {"OBJECT_NAME": "DRAGONFLY", "OBJECT_ID": "1998-067XH", "EPOCH": "2025-12-01T23:30:55.050912", "MEAN_MOTION": 15.67818176, "ECCENTRICITY": 0.000649, "INCLINATION": 51.6258, "RA_OF_ASC_NODE": 190.6875, "ARG_OF_PERICENTER": 211.6531, "MEAN_ANOMALY": 148.4075, "EPHEMERIS_TYPE": 0, "CLASSIFICATION_TYPE": "U", "NORAD_CAT_ID": 65729, "ELEMENT_SET_NO": 999, "REV_AT_EPOCH": 1147, "BSTAR": 0.0011889, "MEAN_MOTION_DOT": 0.00135201, "MEAN_MOTION_DDOT": 0}, "tle": {"line1": "1 65729U 98067XH  25335.97980383  .00135201  00000+0  11889-2 0  9994", "line2": "2 65729  51.6258 190.6875 0006490 211.6531 148.4075 15.67818176 11474"}}, "geometry": {"type": "Point", "coordinates": [-13.930404646941446, 25.505373818090014]}}, {"type": "Feature", "properties": {"norad_id": 65730, "name": "1998-067XJ", "group": "stations", "lat": -9.092017072231004, "lon": 175.22411636549506, "alt_km": 225.133648430442, "timestamp": "2025-12-02T10:50:46.070902+00:00", "meta": {"OBJECT_NAME": "1998-067XJ", "OBJECT_ID": "1998-067XJ", "EPOCH": "2025-12-01T20:03:18.916704", "MEAN_MOTION": 16.13832998, "ECCENTRICITY": 0.0010756, "INCLINATION": 51.6109, "RA_OF_ASC_NODE": 185.8826, "ARG_OF_PERICENTER": 242.801, "MEAN_ANOMALY": 117.191, "EPHEMERIS_TYPE": 0, "CLASSIFICATION_TYPE": "U", "NORAD_CAT_ID": 65730, "ELEMENT_SET_NO": 999, "REV_AT_EPOCH": 1152, "BSTAR": 0.0027371, "MEAN_MOTION_DOT": 0.02710772, "MEAN_MOTION_DDOT": 0.014802}, "tle": {"line1": "1 65730U 98067XJ  25335.83563561  .02710772  14802-1  27371-2 0  9990", "line2": "2 65730  51.6109 185.8826 0010756 242.8010 117.1910 16.13832998 11528"}}, "geometry": {"type": "Point", "coordinates": [175.22411636549506, -9.092017072231004]}}, {"type": "Feature", "properties": {"norad_id": 65731, "name": "1998-067XK", "group": "stations", "lat": 7.503642896480419, "lon": -164.68010407318653, "alt_km": 381.8389165464696, "timestamp": "2025-12-02T10:50:46.070913+00:00", "meta": {"OBJECT_NAME": "1998-067XK", "OBJECT_ID": "1998-067XK", "EPOCH": "2025-12-02T00:03:56.466432", "MEAN_MOTION": 15.6322737, "ECCENTRICITY": 0.0005955, "INCLINATION": 51.629, "RA_OF_ASC_NODE": 191.6009, "ARG_OF_PERICENTER": 184.5035, "MEAN_ANOMALY": 175.5906, "EPHEMERIS_TYPE": 0, "CLASSIFICATION_TYPE": "U", "NORAD_CAT_ID": 65731, "ELEMENT_SET_NO": 999, "REV_AT_EPOCH": 1146, "BSTAR": 0.00092099, "MEAN_MOTION_DOT": 0.00086466, "MEAN_MOTION_DDOT": 0}, "tle": {"line1": "1 65731U 98067XK  25336.00273688  .00086466  00000+0  92099-3 0  9996", "line2": "2 65731  51.6290 191.6009 0005955 184.5035 175.5906 15.63227370 11464"}}, "geometry": {"type": "Point", "coordinates": [-164.68010407318653, 7.503642896480419]}}, {"type": "Feature", "properties": {"norad_id": 65732, "name": "RSP-03", "group": "stations", "lat": -46.97164967671079, "lon": 66.91496660882727, "alt_km": 373.9638176154085, "timestamp": "2025-12-02T10:50:46.070924+00:00", "meta": {"OBJECT_NAME": "RSP-03", "OBJECT_ID": "1998-067XL", "EPOCH": "2025-12-02T00:35:43.430208", "MEAN_MOTION": 15.65401132, "ECCENTRICITY": 0.0006817, "INCLINATION": 51.6275, "RA_OF_ASC_NODE": 190.9915, "ARG_OF_PERICENTER": 187.4004, "MEAN_ANOMALY": 172.6892, "EPHEMERIS_TYPE": 0, "CLASSIFICATION_TYPE": "U", "NORAD_CAT_ID": 65732, "ELEMENT_SET_NO": 999, "REV_AT_EPOCH": 1148, "BSTAR": 0.0010736, "MEAN_MOTION_DOT": 0.00110336, "MEAN_MOTION_DDOT": 0}, "tle": {"line1": "1 65732U 98067XL  25336.02480822  .00110336  00000+0  10736-2 0  9990", "line2": "2 65732  51.6275 190.9915 0006817 187.4004 172.6892 15.65401132 11488"}}, "geometry": {"type": "Point", "coordinates": [66.91496660882727, -46.97164967671079]}}, {"type": "Feature", "properties": {"norad_id": 65733, "name": "GHS-01", "group": "stations", "lat": -21.971216371087333, "lon": 169.26047929258, "alt_km": 364.5576406624441, "timestamp": "2025-12-02T10:50:46.070934+00:00", "meta": {"OBJECT_NAME": "GHS-01", "OBJECT_ID": "1998-067XM", "EPOCH": "2025-12-01T21:13:00.819264", "MEAN_MOTION": 15.69713992, "ECCENTRICITY": 0.0007058, "INCLINATION": 51.6283, "RA_OF_ASC_NODE": 190.8036, "ARG_OF_PERICENTER": 210.2396, "MEAN_ANOMALY": 149.8194, "EPHEMERIS_TYPE": 0, "CLASSIFICATION_TYPE": "U", "NORAD_CAT_ID": 65733, "ELEMENT_SET_NO": 999, "REV_AT_EPOCH": 1147, "BSTAR": 0.0013342, "MEAN_MOTION_DOT": 0.00164761, "MEAN_MOTION_DDOT": 0}, "tle": {"line1": "1 65733U 98067XM  25335.88403726  .00164761  00000+0  13342-2 0  9999", "line2": "2 65733  51.6283 190.8036 0007058 210.2396 149.8194 15.69713992 11472"}}, "geometry": {"type": "Point", "coordinates": [169.26047929258, -21.971216371087333]}}, {"type": "Feature", "properties": {"norad_id": 65941, "name": "YOTSUBA-KULOVER", "group": "stations", "lat": -7.248667543998001, "lon": -174.16933902039108, "alt_km": 397.5340374613552, "timestamp": "2025-12-02T10:50:46.070947+00:00", "meta": {"OBJECT_NAME": "YOTSUBA-KULOVER", "OBJECT_ID": "1998-067XN", "EPOCH": "2025-12-01T14:52:06.534912", "MEAN_MOTION": 15.57565098, "ECCENTRICITY": 0.00022157, "INCLINATION": 51.6287, "RA_OF_ASC_NODE": 195.7889, "ARG_OF_PERICENTER": 159.9481, "MEAN_ANOMALY": 200.1599, "EPHEMERIS_TYPE": 0, "CLASSIFICATION_TYPE": "U", "NORAD_CAT_ID": 65941, "ELEMENT_SET_NO": 999, "REV_AT_EPOCH": 812, "BSTAR": 0.00079143347, "MEAN_MOTION_DOT": 0.00059437, "MEAN_MOTION_DDOT": 0}, "tle": {"line1": "1 65941U 98067XN  25335.61952008  .00059437  00000+0  79143-3 0  9998", "line2": "2 65941  51.6287 195.7889 0002215 159.9481 200.1599 15.57565098  8128"}}, "geometry": {"type": "Point", "coordinates": [-174.16933902039108, -7.248667543998001]}}]}